{
  "type": "FeatureCollection",
  "features": [
    {
      "type": "Feature",
      "properties": {
        "norad_id": 35616,
        "name": "IRIDIUM 33 DEB",
        "group": "iridium-33-debris",
        "lat": 86.33909040383496,
        "lon": 73.67600196065884,
        "alt_km": 617.411400009315,
        "timestamp": "2025-12-06T20:37:56.460569+00:00",
        "meta_object_name": "IRIDIUM 33 DEB",
        "meta_object_id": "1997-051QN",
        "meta_epoch": "2025-12-06T07:15:38.847744",
        "meta_mean_motion": 14.81564916,
        "meta_eccentricity": 0.00091957,
        "meta_inclination": 86.3542,
        "meta_ra_of_asc_node": 348.7026,
        "meta_arg_of_pericenter": 186.8662,
        "meta_mean_anomaly": 173.2436,
        "meta_ephemeris_type": 0,
        "meta_classification_type": "U",
        "meta_norad_cat_id": 35616,
        "meta_element_set_no": 999,
        "meta_rev_at_epoch": 87479,
        "meta_bstar": 0.0030438731,
        "meta_mean_motion_dot": 0.00023991,
        "meta_mean_motion_ddot": 0,
        "tle_line1": "1 35616U 97051QN  25340.30253296  .00023991  00000+0  30439-2 0  9991",
        "tle_line2": "2 35616  86.3542 348.7026 0009195 186.8662 173.2436 14.81564916874798"
      },
      "geometry": {
        "type": "Point",
        "coordinates": [
          73.67600196065884,
          86.33909040383496
        ]
      }
    },
    {
      "type": "Feature",
      "properties": {
        "norad_id": 35618,
        "name": "IRIDIUM 33 DEB",
        "group": "iridium-33-debris",
        "lat": 62.073968298213,
        "lon": 169.13798313241983,
        "alt_km": 707.2231327927475,
        "timestamp": "2025-12-06T20:37:56.460580+00:00",
        "meta_object_name": "IRIDIUM 33 DEB",
        "meta_object_id": "1997-051QQ",
        "meta_epoch": "2025-12-05T07:42:53.148672",
        "meta_mean_motion": 14.52258119,
        "meta_eccentricity": 0.00302089,
        "meta_inclination": 86.3407,
        "meta_ra_of_asc_node": 356.7447,
        "meta_arg_of_pericenter": 46.3254,
        "meta_mean_anomaly": 314.0448,
        "meta_ephemeris_type": 0,
        "meta_classification_type": "U",
        "meta_norad_cat_id": 35618,
        "meta_element_set_no": 999,
        "meta_rev_at_epoch": 65286,
        "meta_bstar": 0.00091388234,
        "meta_mean_motion_dot": 3.753e-05,
        "meta_mean_motion_ddot": 0,
        "tle_line1": "1 35618U 97051QQ  25339.32144848  .00003753  00000+0  91388-3 0  9990",
        "tle_line2": "2 35618  86.3407 356.7447 0030208  46.3254 314.0448 14.52258119652865"
      },
      "geometry": {
        "type": "Point",
        "coordinates": [
          169.13798313241983,
          62.073968298213
        ]
      }
    },
    {
      "type": "Feature",
      "properties": {
        "norad_id": 35620,
        "name": "IRIDIUM 33 DEB",
        "group": "iridium-33-debris",
        "lat": 45.13512197136209,
        "lon": -136.42963122046643,
        "alt_km": 823.0952175756975,
        "timestamp": "2025-12-06T20:37:56.460590+00:00",
        "meta_object_name": "IRIDIUM 33 DEB",
        "meta_object_id": "1997-051QS",
        "meta_epoch": "2025-12-06T02:02:49.416288",
        "meta_mean_motion": 14.3768993,
        "meta_eccentricity": 0.01438549,
        "meta_inclination": 86.3906,
        "meta_ra_of_asc_node": 220.2605,
        "meta_arg_of_pericenter": 280.8706,
        "meta_mean_anomaly": 77.6331,
        "meta_ephemeris_type": 0,
        "meta_classification_type": "U",
        "meta_norad_cat_id": 35620,
        "meta_element_set_no": 999,
        "meta_rev_at_epoch": 59870,
        "meta_bstar": 0.0080397283,
        "meta_mean_motion_dot": 0.00027327,
        "meta_mean_motion_ddot": 0,
        "tle_line1": "1 35620U 97051QS  25340.08529417  .00027327  00000+0  80397-2 0  9997",
        "tle_line2": "2 35620  86.3906 220.2605 0143854 280.8706  77.6331 14.37689930598709"
      },
      "geometry": {
        "type": "Point",
        "coordinates": [
          -136.42963122046643,
          45.13512197136209
        ]
      }
    },
    {
      "type": "Feature",
      "properties": {
        "norad_id": 35622,
        "name": "IRIDIUM 33 DEB",
        "group": "iridium-33-debris",
        "lat": 10.176534491065977,
        "lon": 85.81472250898955,
        "alt_km": 564.5986837381924,
        "timestamp": "2025-12-06T20:37:56.460604+00:00",
        "meta_object_name": "IRIDIUM 33 DEB",
        "meta_object_id": "1997-051QU",
        "meta_epoch": "2025-12-06T06:10:47.790912",
        "meta_mean_motion": 15.03498314,
        "meta_eccentricity": 0.00106929,
        "meta_inclination": 86.2036,
        "meta_ra_of_asc_node": 266.7937,
        "meta_arg_of_pericenter": 6.4287,
        "meta_mean_anomaly": 145.8832,
        "meta_ephemeris_type": 0,
        "meta_classification_type": "U",
        "meta_norad_cat_id": 35622,
        "meta_element_set_no": 999,
        "meta_rev_at_epoch": 87262,
        "meta_bstar": 0.0085488468,
        "meta_mean_motion_dot": 0.00118453,
        "meta_mean_motion_ddot": 0,
        "tle_line1": "1 35622U 97051QU  25340.25749758  .00118453  00000+0  85488-2 0  9997",
        "tle_line2": "2 35622  86.2036 266.7937 0010692   6.4287 145.8832 15.03498314872624"
      },
      "geometry": {
        "type": "Point",
        "coordinates": [
          85.81472250898955,
          10.176534491065977
        ]
      }
    },
    {
      "type": "Feature",
      "properties": {
        "norad_id": 35628,
        "name": "IRIDIUM 33 DEB",
        "group": "iridium-33-debris",
        "lat": 52.62502451332237,
        "lon": 16.482067548003464,
        "alt_km": 659.025366083295,
        "timestamp": "2025-12-06T20:37:56.460614+00:00",
        "meta_object_name": "IRIDIUM 33 DEB",
        "meta_object_id": "1997-051RA",
        "meta_epoch": "2025-12-04T09:28:36.488064",
        "meta_mean_motion": 14.67394134,
        "meta_eccentricity": 0.001144,
        "meta_inclination": 86.3576,
        "meta_ra_of_asc_node": 12.797,
        "meta_arg_of_pericenter": 12.0998,
        "meta_mean_anomaly": 348.0488,
        "meta_ephemeris_type": 0,
        "meta_classification_type": "U",
        "meta_norad_cat_id": 35628,
        "meta_element_set_no": 999,
        "meta_rev_at_epoch": 86324,
        "meta_bstar": 0.0032445,
        "meta_mean_motion_dot": 0.00018408,
        "meta_mean_motion_ddot": 0,
        "tle_line1": "1 35628U 97051RA  25338.39486676  .00018408  00000+0  32445-2 0  9996",
        "tle_line2": "2 35628  86.3576  12.7970 0011440  12.0998 348.0488 14.67394134863246"
      },
      "geometry": {
        "type": "Point",
        "coordinates": [
          16.482067548003464,
          52.62502451332237
        ]
      }
    },
    {
      "type": "Feature",
      "properties": {
        "norad_id": 35631,
        "name": "IRIDIUM 33 DEB",
        "group": "iridium-33-debris",
        "lat": 15.656625958595525,
        "lon": 24.527510993554806,
        "alt_km": 741.8631624664131,
        "timestamp": "2025-12-06T20:37:56.460627+00:00",
        "meta_object_name": "IRIDIUM 33 DEB",
        "meta_object_id": "1997-051RD",
        "meta_epoch": "2025-12-06T09:00:36.554976",
        "meta_mean_motion": 14.47284738,
        "meta_eccentricity": 0.00184726,
        "meta_inclination": 86.3673,
        "meta_ra_of_asc_node": 23.7157,
        "meta_arg_of_pericenter": 137.2263,
        "meta_mean_anomaly": 237.2764,
        "meta_ephemeris_type": 0,
        "meta_classification_type": "U",
        "meta_norad_cat_id": 35631,
        "meta_element_set_no": 999,
        "meta_rev_at_epoch": 87105,
        "meta_bstar": 0.00066274585,
        "meta_mean_motion_dot": 2.448e-05,
        "meta_mean_motion_ddot": 0,
        "tle_line1": "1 35631U 97051RD  25340.37542309  .00002448  00000+0  66275-3 0  9993",
        "tle_line2": "2 35631  86.3673  23.7157 0018472 137.2263 237.2764 14.47284738871054"
      },
      "geometry": {
        "type": "Point",
        "coordinates": [
          24.527510993554806,
          15.656625958595525
        ]
      }
    },
    {
      "type": "Feature",
      "properties": {
        "norad_id": 35680,
        "name": "IRIDIUM 33 DEB",
        "group": "iridium-33-debris",
        "lat": -4.635164786549099,
        "lon": -155.55568863610705,
        "alt_km": 866.9224342069165,
        "timestamp": "2025-12-06T20:37:56.460637+00:00",
        "meta_object_name": "IRIDIUM 33 DEB",
        "meta_object_id": "1997-051RJ",
        "meta_epoch": "2025-12-06T09:39:51.736896",
        "meta_mean_motion": 14.20748737,
        "meta_eccentricity": 0.01506079,
        "meta_inclination": 86.1022,
        "meta_ra_of_asc_node": 24.3298,
        "meta_arg_of_pericenter": 298.7228,
        "meta_mean_anomaly": 71.4349,
        "meta_ephemeris_type": 0,
        "meta_classification_type": "U",
        "meta_norad_cat_id": 35680,
        "meta_element_set_no": 999,
        "meta_rev_at_epoch": 60611,
        "meta_bstar": 0.0059192818,
        "meta_mean_motion_dot": 0.00014348,
        "meta_mean_motion_ddot": 0,
        "tle_line1": "1 35680U 97051RJ  25340.40268214  .00014348  00000+0  59193-2 0  9993",
        "tle_line2": "2 35680  86.1022  24.3298 0150607 298.7228  71.4349 14.20748737606113"
      },
      "geometry": {
        "type": "Point",
        "coordinates": [
          -155.55568863610705,
          -4.635164786549099
        ]
      }
    }
  ]
}